[{"OBJECT_NAME":"STARLINK-5554","OBJECT_ID":"2023-058X","EPOCH":"2026-03-09T23:34:52.877280","MEAN_MOTION":15.01260266,"ECCENTRICITY":0.0001228,"INCLINATION":97.6037,"RA_OF_ASC_NODE":70.4779,"ARG_OF_PERICENTER":102.7397,"MEAN_ANOMALY":257.3965,"EPHEMERIS_TYPE":0,"CLASSIFICATION_TYPE":"U","NORAD_CAT_ID":56338,"ELEMENT_SET_NO":999,"REV_AT_EPOCH":15817,"BSTAR":-2.4235782e-5,"MEAN_MOTION_DOT":-3.7e-6,"MEAN_MOTION_DDOT":0},{"OBJECT_NAME":"FENGYUN 1C DEB","OBJECT_ID":"1999-025EJU","EPOCH":"2026-02-26T20:11:02.200416","MEAN_MOTION":14.76820792,"ECCENTRICITY":0.0127498,"INCLINATION":99.1634,"RA_OF_ASC_NODE":278.149,"ARG_OF_PERICENTER":258.5062,"MEAN_ANOMALY":100.1804,"EPHEMERIS_TYPE":0,"CLASSIFICATION_TYPE":"U","NORAD_CAT_ID":37474,"ELEMENT_SET_NO":999,"REV_AT_EPOCH":63498,"BSTAR":0.0012932,"MEAN_MOTION_DOT":0.00010319,"MEAN_MOTION_DDOT":0}]
